$$SOE
2459580.500000000, A.D. 2022-Jan-01 00:00:00.0000, 1.125281784435766E+08, 2.929253087247485E+08, 2.284019805312946E+07,
2459587.500000000, A.D. 2022-Jan-08 00:00:00.0000, 1.001209563351605E+08, 2.962459434647912E+08, 2.288440305339235E+07,
2459594.500000000, A.D. 2022-Jan-15 00:00:00.0000, 8.755608418543221E+07, 2.991000519541082E+08, 2.289257116095890E+07,
2459601.500000000, A.D. 2022-Jan-22 00:00:00.0000, 7.485195438057974E+07, 3.014783712093596E+08, 2.286432424518959E+07,
2459608.500000000, A.D. 2022-Jan-29 00:00:00.0000, 6.202760565349721E+07, 3.033724000011777E+08, 2.279934903595749E+07,
2459615.500000000, A.D. 2022-Feb-05 00:00:00.0000, 4.910268856481697E+07, 3.047744505752412E+08, 2.269740053314605E+07,
2459622.500000000, A.D. 2022-Feb-12 00:00:00.0000, 3.609742839034013E+07, 3.056776982354329E+08, 2.255830498114325E+07,
2459629.500000000, A.D. 2022-Feb-19 00:00:00.0000, 2.303258405762250E+07, 3.060762306837196E+08, 2.238196268732399E+07,
2459636.500000000, A.D. 2022-Feb-26 00:00:00.0000, 9.929401832237573E+06, 3.059650958889279E+08, 2.216835070864102E+07,
2459643.500000000, A.D. 2022-Mar-05 00:00:00.0000, -3.190436021194689E+06, 3.053403473535367E+08, 2.191752530511928E+07,
2459650.500000000, A.D. 2022-Mar-12 00:00:00.0000, -1.630486725356877E+07, 3.041990861945418E+08, 2.162962409903492E+07,
2459657.500000000, A.D. 2022-Mar-19 00:00:00.0000, -2.939151005851572E+07, 3.025394995490431E+08, 2.130486790105991E+07,
2459664.500000000, A.D. 2022-Mar-26 00:00:00.0000, -4.242772763284962E+07, 3.003608947899071E+08, 2.094356216798550E+07,
2459671.500000000, A.D. 2022-Apr-02 00:00:00.0000, -5.539069647995075E+07, 2.976637290043304E+08, 2.054609805070709E+07,
2459678.500000000, A.D. 2022-Apr-09 00:00:00.0000, -6.825747779731132E+07, 2.944496332753135E+08, 2.011295298040661E+07,
2459685.500000000, A.D. 2022-Apr-16 00:00:00.0000, -8.100509114374493E+07, 2.907214319925466E+08, 1.964469078992946E+07,
2459692.500000000, A.D. 2022-Apr-23 00:00:00.0000, -9.361059114998935E+07, 2.864831579010493E+08, 1.914196155600534E+07,
2459699.500000000, A.D. 2022-Apr-30 00:00:00.0000, -1.060511485747350E+08, 2.817400603186297E+08, 1.860550113478424E+07,
2459706.500000000, A.D. 2022-May-07 00:00:00.0000, -1.183041320299760E+08, 2.764986042660984E+08, 1.803612993817270E+07,
2459713.500000000, A.D. 2022-May-14 00:00:00.0000, -1.303471883529456E+08, 2.707664633512387E+08, 1.743475106905419E+07,
2459720.500000000, A.D. 2022-May-21 00:00:00.0000, -1.421583229821033E+08, 2.645525070595631E+08, 1.680234806585883E+07,
2459727.500000000, A.D. 2022-May-28 00:00:00.0000, -1.537159801164796E+08, 2.578667814534156E+08, 1.613998222958733E+07,
2459734.500000000, A.D. 2022-Jun-04 00:00:00.0000, -1.649991216787768E+08, 2.507204830070490E+08, 1.544878949643004E+07,
2459741.500000000, A.D. 2022-Jun-11 00:00:00.0000, -1.759873042405692E+08, 2.431259257077972E+08, 1.472997686322413E+07,
2459748.500000000, A.D. 2022-Jun-18 00:00:00.0000, -1.866607531895103E+08, 2.350965016499631E+08, 1.398481838943249E+07,
2459755.500000000, A.D. 2022-Jun-25 00:00:00.0000, -1.970004334549562E+08, 2.266466353836042E+08, 1.321465080183925E+07,
2459762.500000000, A.D. 2022-Jul-02 00:00:00.0000, -2.069881160423019E+08, 2.177917323252406E+08, 1.242086872090003E+07,
2459769.500000000, A.D. 2022-Jul-09 00:00:00.0000, -2.166064394190935E+08, 2.085481218511577E+08, 1.160491952845414E+07,
2459776.500000000, A.D. 2022-Jul-16 00:00:00.0000, -2.258389653014635E+08, 1.989329966630064E+08, 1.076829801515412E+07,
2459783.500000000, A.D. 2022-Jul-23 00:00:00.0000, -2.346702306047440E+08, 1.889643490686699E+08, 9.912541063184351E+06,
2459790.500000000, A.D. 2022-Jul-30 00:00:00.0000, -2.430857951101640E+08, 1.786609014419056E+08, 9.039222131819688E+06,
2459797.500000000, A.D. 2022-Aug-06 00:00:00.0000, -2.510722809472033E+08, 1.680420321491813E+08, 8.149945320035562E+06,
2459804.500000000, A.D. 2022-Aug-13 00:00:00.0000, -2.586174045068887E+08, 1.571277003506218E+08, 7.246339358854577E+06,
2459811.500000000, A.D. 2022-Aug-20 00:00:00.0000, -2.657100022444469E+08, 1.459383698521336E+08, 6.330051686764300E+06,
2459818.500000000, A.D. 2022-Aug-27 00:00:00.0000, -2.723400502646095E+08, 1.344949319662571E+08, 5.402742591791376E+06,
2459825.500000000, A.D. 2022-Sep-03 00:00:00.0000, -2.784986774798745E+08, 1.228186279383028E+08, 4.466079435822405E+06,
2459832.500000000, A.D. 2022-Sep-10 00:00:00.0000, -2.841781723684362E+08, 1.109309716079914E+08, 3.521730999192953E+06,
2459839.500000000, A.D. 2022-Sep-17 00:00:00.0000, -2.893719834888662E+08, 9.885367292416197E+07, 2.571361983398683E+06,
2459846.500000000, A.D. 2022-Sep-24 00:00:00.0000, -2.940747139352536E+08, 8.660856284400748E+07, 1.616627699307069E+06,
2459853.500000000, A.D. 2022-Oct-01 00:00:00.0000, -2.982821097846456E+08, 7.421752012708771E+07, 6.591689508853555E+05,
2459860.500000000, A.D. 2022-Oct-08 00:00:00.0000, -3.019910424673640E+08, 6.170240101706514E+07, -2.993928496799804E+05,
2459867.500000000, A.D. 2022-Oct-15 00:00:00.0000, -3.051994863817929E+08, 4.908497341708521E+07, -1.257460126125045E+06,
2459874.500000000, A.D. 2022-Oct-22 00:00:00.0000, -3.079064943783576E+08, 3.638685422717716E+07, -2.213463059853761E+06,
2459881.500000000, A.D. 2022-Oct-29 00:00:00.0000, -3.101121690915262E+08, 2.362944755994241E+07, -3.165863417710150E+06,
2459888.500000000, A.D. 2022-Nov-05 00:00:00.0000, -3.118176284933513E+08, 1.083388683678327E+07, -4.113158245173780E+06,
2459895.500000000, A.D. 2022-Nov-12 00:00:00.0000, -3.130249680958729E+08, -1.979017775549446E+06, -5.053883135074600E+06,
2459902.500000000, A.D. 2022-Nov-19 00:00:00.0000, -3.137372209909368E+08, -1.478882741499761E+07, -5.986615082560769E+06,
2459909.500000000, A.D. 2022-Nov-26 00:00:00.0000, -3.139583159320337E+08, -2.757551838161911E+07, -6.909974985345060E+06,
2459916.500000000, A.D. 2022-Dec-03 00:00:00.0000, -3.136930337417708E+08, -4.031952178666060E+07, -7.822629810455089E+06,
2459923.500000000, A.D. 2022-Dec-10 00:00:00.0000, -3.129469624294137E+08, -5.300175899545616E+07, -8.723294437996797E+06,
2459930.500000000, A.D. 2022-Dec-17 00:00:00.0000, -3.117264514025917E+08, -6.560367295231383E+07, -9.610733196898617E+06,
2459937.500000000, A.D. 2022-Dec-24 00:00:00.0000, -3.100385650478814E+08, -7.810725555276743E+07, -1.048376112105890E+07,
2459944.500000000, A.D. 2022-Dec-31 00:00:00.0000, -3.078910356785858E+08, -9.049507108636488E+07, -1.134124496475658E+07,
2459951.500000000, A.D. 2023-Jan-07 00:00:00.0000, -3.052922160518760E+08, -1.027502749446077E+08, -1.218210392613579E+07,
2459958.500000000, A.D. 2023-Jan-14 00:00:00.0000, -3.022510337147573E+08, -1.148566272769698E+08, -1.300530987507139E+07,
2459965.500000000, A.D. 2023-Jan-21 00:00:00.0000, -2.987769480870804E+08, -1.267985049673236E+08, -1.380988730420578E+07,
2459972.500000000, A.D. 2023-Jan-28 00:00:00.0000, -2.948799068501574E+08, -1.385609123384084E+08, -1.459491337494395E+07,
2459979.500000000, A.D. 2023-Feb-04 00:00:00.0000, -2.905703020518377E+08, -1.501294877728279E+08, -1.535951781040567E+07,
2459986.500000000, A.D. 2023-Feb-11 00:00:00.0000, -2.858589278887306E+08, -1.614905066648812E+08, -1.610288250422053E+07,
2459993.500000000, A.D. 2023-Feb-18 00:00:00.0000, -2.807569403652518E+08, -1.726308817540635E+08, -1.682424092478240E+07,
2460000.500000000, A.D. 2023-Feb-25 00:00:00.0000, -2.752758186814790E+08, -1.835381612318322E+08, -1.752287737088467E+07,
2460007.500000000, A.D. 2023-Mar-04 00:00:00.0000, -2.694273283399563E+08, -1.942005248273296E+08, -1.819812610438956E+07,
2460014.500000000, A.D. 2023-Mar-11 00:00:00.0000, -2.632234860102747E+08, -2.046067780886138E+08, -1.884937037902975E+07,
2460021.500000000, A.D. 2023-Mar-18 00:00:00.0000, -2.566765261488896E+08, -2.147463451188934E+08, -1.947604138922222E+07,
2460028.500000000, A.D. 2023-Mar-25 00:00:00.0000, -2.497988691960013E+08, -2.246092600171496E+08, -2.007761717609137E+07,
2460035.500000000, A.D. 2023-Apr-01 00:00:00.0000, -2.426030909333577E+08, -2.341861568224491E+08, -2.065362151128924E+07,
2460042.500000000, A.D. 2023-Apr-08 00:00:00.0000, -2.351018936113243E+08, -2.434682569185773E+08, -2.120362261483473E+07,
2460049.500000000, A.D. 2023-Apr-15 00:00:00.0000, -2.273080811610330E+08, -2.524473551758175E+08, -2.172723159493175E+07,
2460056.500000000, A.D. 2023-Apr-22 00:00:00.0000, -2.192345366515604E+08, -2.611158080438191E+08, -2.222410103664105E+07,
2460063.500000000, A.D. 2023-Apr-29 00:00:00.0000, -2.108941992201276E+08, -2.694665214936014E+08, -2.269392381683391E+07,
2460070.500000000, A.D. 2023-May-06 00:00:00.0000, -2.023000421901435E+08, -2.774929371627263E+08, -2.313643184741667E+07,
2460077.500000000, A.D. 2023-May-13 00:00:00.0000, -1.934650532987868E+08, -2.851890177174230E+08, -2.355139473767823E+07,
2460084.500000000, A.D. 2023-May-20 00:00:00.0000, -1.844022167361956E+08, -2.925492320314387E+08, -2.393861844375031E+07,
2460091.500000000, A.D. 2023-May-27 00:00:00.0000, -1.751244967328583E+08, -2.995685403123648E+08, -2.429794393134829E+07,
2460098.500000000, A.D. 2023-Jun-03 00:00:00.0000, -1.656448225660866E+08, -3.062423792453676E+08, -2.462924586091550E+07,
2460105.500000000, A.D. 2023-Jun-10 00:00:00.0000, -1.559760748915947E+08, -3.125666472568796E+08, -2.493243130416781E+07,
2460112.500000000, A.D. 2023-Jun-17 00:00:00.0000, -1.461310732429177E+08, -3.185376900376911E+08, -2.520743851029135E+07,
2460119.500000000, A.D. 2023-Jun-24 00:00:00.0000, -1.361225643122696E+08, -3.241522863377451E+08, -2.545423575088960E+07,
2460126.500000000, A.D. 2023-Jul-01 00:00:00.0000, -1.259632106935304E+08, -3.294076332592601E+08, -2.567282020210104E+07,
2460133.500000000, A.D. 2023-Jul-08 00:00:00.0000, -1.156655816919005E+08, -3.343013302681007E+08, -2.586321664460751E+07,
2460140.500000000, A.D. 2023-Jul-15 00:00:00.0000, -1.052421474023660E+08, -3.388313647887225E+08, -2.602547609687427E+07,
$$EOE